[{"OBJECT_NAME":"ONEWEB-0528","OBJECT_ID":"2022-166B","EPOCH":"2026-03-17T04:56:54.529152","MEAN_MOTION":13.21824933,"ECCENTRICITY":0.00017535,"INCLINATION":87.9162,"RA_OF_ASC_NODE":262.3386,"ARG_OF_PERICENTER":94.5371,"MEAN_ANOMALY":265.5963,"EPHEMERIS_TYPE":0,"CLASSIFICATION_TYPE":"U","NORAD_CAT_ID":54643,"ELEMENT_SET_NO":999,"REV_AT_EPOCH":15939,"BSTAR":-0.00013385085,"MEAN_MOTION_DOT":-4.2e-7,"MEAN_MOTION_DDOT":0},{"OBJECT_NAME":"ONEWEB-0539","OBJECT_ID":"2022-166C","EPOCH":"2026-03-17T05:51:24.507360","MEAN_MOTION":13.21826893,"ECCENTRICITY":0.00015921,"INCLINATION":87.9167,"RA_OF_ASC_NODE":262.2969,"ARG_OF_PERICENTER":100.2398,"MEAN_ANOMALY":259.8916,"EPHEMERIS_TYPE":0,"CLASSIFICATION_TYPE":"U","NORAD_CAT_ID":54644,"ELEMENT_SET_NO":999,"REV_AT_EPOCH":15939,"BSTAR":4.1435418e-5,"MEAN_MOTION_DOT":3.0e-7,"MEAN_MOTION_DDOT":0},{"OBJECT_NAME":"ONEWEB-0540","OBJECT_ID":"2022-166D","EPOCH":"2026-03-17T06:01:05.331360","MEAN_MOTION":13.21824768,"ECCENTRICITY":0.00015316,"INCLINATION":87.9163,"RA_OF_ASC_NODE":262.3316,"ARG_OF_PERICENTER":94.5693,"MEAN_ANOMALY":265.5616,"EPHEMERIS_TYPE":0,"CLASSIFICATION_TYPE":"U","NORAD_CAT_ID":54645,"ELEMENT_SET_NO":999,"REV_AT_EPOCH":15938,"BSTAR":0.00022059338,"MEAN_MOTION_DOT":1.04e-6,"MEAN_MOTION_DDOT":0},{"OBJECT_NAME":"ONEWEB-0542","OBJECT_ID":"2022-166E","EPOCH":"2026-03-17T06:05:37.563936","MEAN_MOTION":13.21824609,"ECCENTRICITY":0.00013477,"INCLINATION":87.9171,"RA_OF_ASC_NODE":262.2915,"ARG_OF_PERICENTER":98.9266,"MEAN_ANOMALY":261.202,"EPHEMERIS_TYPE":0,"CLASSIFICATION_TYPE":"U","NORAD_CAT_ID":54646,"ELEMENT_SET_NO":999,"REV_AT_EPOCH":15939,"BSTAR":6.8803328e-5,"MEAN_MOTION_DOT":4.1e-7,"MEAN_MOTION_DDOT":0},{"OBJECT_NAME":"ONEWEB-0545","OBJECT_ID":"2022-166F","EPOCH":"2026-03-17T05:15:51.149664","MEAN_MOTION":13.21828331,"ECCENTRICITY":0.00011861,"INCLINATION":87.9163,"RA_OF_ASC_NODE":262.3177,"ARG_OF_PERICENTER":99.8239,"MEAN_ANOMALY":260.3029,"EPHEMERIS_TYPE":0,"CLASSIFICATION_TYPE":"U","NORAD_CAT_ID":54647,"ELEMENT_SET_NO":999,"REV_AT_EPOCH":15935,"BSTAR":0.00036672007,"MEAN_MOTION_DOT":1.64e-6,"MEAN_MOTION_DDOT":0},{"OBJECT_NAME":"ONEWEB-0580","OBJECT_ID":"2022-166G","EPOCH":"2026-03-16T23:10:56.644896","MEAN_MOTION":13.21826879,"ECCENTRICITY":0.00012879,"INCLINATION":87.9163,"RA_OF_ASC_NODE":262.3683,"ARG_OF_PERICENTER":92.2454,"MEAN_ANOMALY":267.8828,"EPHEMERIS_TYPE":0,"CLASSIFICATION_TYPE":"U","NORAD_CAT_ID":54648,"ELEMENT_SET_NO":999,"REV_AT_EPOCH":15936,"BSTAR":-6.9490179e-5,"MEAN_MOTION_DOT":-1.6e-7,"MEAN_MOTION_DDOT":0},{"OBJECT_NAME":"ONEWEB-0582","OBJECT_ID":"2022-166H","EPOCH":"2026-03-17T05:39:33.597792","MEAN_MOTION":13.21827288,"ECCENTRICITY":0.00012311,"INCLINATION":87.9162,"RA_OF_ASC_NODE":262.3071,"ARG_OF_PERICENTER":98.738,"MEAN_ANOMALY":261.3893,"EPHEMERIS_TYPE":0,"CLASSIFICATION_TYPE":"U","NORAD_CAT_ID":54649,"ELEMENT_SET_NO":999,"REV_AT_EPOCH":15937,"BSTAR":0.00021691363,"MEAN_MOTION_DOT":1.03e-6,"MEAN_MOTION_DDOT":0},{"OBJECT_NAME":"ONEWEB-0583","OBJECT_ID":"2022-166J","EPOCH":"2026-03-17T05:56:07.674720","MEAN_MOTION":13.21827532,"ECCENTRICITY":0.00015866,"INCLINATION":87.9164,"RA_OF_ASC_NODE":262.3281,"ARG_OF_PERICENTER":97.0974,"MEAN_ANOMALY":263.0341,"EPHEMERIS_TYPE":0,"CLASSIFICATION_TYPE":"U","NORAD_CAT_ID":54650,"ELEMENT_SET_NO":999,"REV_AT_EPOCH":15938,"BSTAR":0.00015058044,"MEAN_MOTION_DOT":7.5e-7,"MEAN_MOTION_DDOT":0},{"OBJECT_NAME":"ONEWEB-0584","OBJECT_ID":"2022-166K","EPOCH":"2026-03-17T06:24:34.828992","MEAN_MOTION":13.21827578,"ECCENTRICITY":0.00013272,"INCLINATION":87.916,"RA_OF_ASC_NODE":262.3115,"ARG_OF_PERICENTER":91.1625,"MEAN_ANOMALY":268.9661,"EPHEMERIS_TYPE":0,"CLASSIFICATION_TYPE":"U","NORAD_CAT_ID":54651,"ELEMENT_SET_NO":999,"REV_AT_EPOCH":15937,"BSTAR":-0.00013675089,"MEAN_MOTION_DOT":-4.3e-7,"MEAN_MOTION_DDOT":0},{"OBJECT_NAME":"ONEWEB-0585","OBJECT_ID":"2022-166L","EPOCH":"2026-03-17T01:33:07.063776","MEAN_MOTION":13.21825222,"ECCENTRICITY":0.00018085,"INCLINATION":87.9163,"RA_OF_ASC_NODE":262.3366,"ARG_OF_PERICENTER":91.5818,"MEAN_ANOMALY":268.5523,"EPHEMERIS_TYPE":0,"CLASSIFICATION_TYPE":"U","NORAD_CAT_ID":54652,"ELEMENT_SET_NO":999,"REV_AT_EPOCH":15935,"BSTAR":-4.830471e-6,"MEAN_MOTION_DOT":1.1e-7,"MEAN_MOTION_DDOT":0},{"OBJECT_NAME":"ONEWEB-0586","OBJECT_ID":"2022-166M","EPOCH":"2026-03-17T05:30:05.794272","MEAN_MOTION":13.21826076,"ECCENTRICITY":0.00015257,"INCLINATION":87.9163,"RA_OF_ASC_NODE":262.3293,"ARG_OF_PERICENTER":98.0727,"MEAN_ANOMALY":262.058,"EPHEMERIS_TYPE":0,"CLASSIFICATION_TYPE":"U","NORAD_CAT_ID":54653,"ELEMENT_SET_NO":999,"REV_AT_EPOCH":15937,"BSTAR":0.00014448354,"MEAN_MOTION_DOT":7.3e-7,"MEAN_MOTION_DDOT":0},{"OBJECT_NAME":"ONEWEB-0587","OBJECT_ID":"2022-166N","EPOCH":"2026-03-17T05:44:17.092608","MEAN_MOTION":13.21837231,"ECCENTRICITY":0.0001843,"INCLINATION":87.9174,"RA_OF_ASC_NODE":262.2917,"ARG_OF_PERICENTER":95.0818,"MEAN_ANOMALY":265.0526,"EPHEMERIS_TYPE":0,"CLASSIFICATION_TYPE":"U","NORAD_CAT_ID":54654,"ELEMENT_SET_NO":999,"REV_AT_EPOCH":15953,"BSTAR":-0.0062694012,"MEAN_MOTION_DOT":-2.576e-5,"MEAN_MOTION_DDOT":0},{"OBJECT_NAME":"ONEWEB-0589","OBJECT_ID":"2022-166P","EPOCH":"2026-03-17T05:25:19.915680","MEAN_MOTION":13.21824856,"ECCENTRICITY":7.992e-5,"INCLINATION":87.9159,"RA_OF_ASC_NODE":262.3186,"ARG_OF_PERICENTER":92.6234,"MEAN_ANOMALY":267.4991,"EPHEMERIS_TYPE":0,"CLASSIFICATION_TYPE":"U","NORAD_CAT_ID":54655,"ELEMENT_SET_NO":999,"REV_AT_EPOCH":15939,"BSTAR":0.00016151567,"MEAN_MOTION_DOT":8.0e-7,"MEAN_MOTION_DDOT":0},{"OBJECT_NAME":"ONEWEB-0590","OBJECT_ID":"2022-166Q","EPOCH":"2026-03-17T06:00:41.167872","MEAN_MOTION":13.21825253,"ECCENTRICITY":0.00016693,"INCLINATION":87.9171,"RA_OF_ASC_NODE":262.2945,"ARG_OF_PERICENTER":77.8207,"MEAN_ANOMALY":282.3114,"EPHEMERIS_TYPE":0,"CLASSIFICATION_TYPE":"U","NORAD_CAT_ID":54656,"ELEMENT_SET_NO":999,"REV_AT_EPOCH":15938,"BSTAR":5.7872438e-5,"MEAN_MOTION_DOT":3.7e-7,"MEAN_MOTION_DDOT":0},{"OBJECT_NAME":"ONEWEB-0591","OBJECT_ID":"2022-166R","EPOCH":"2026-03-17T06:17:28.702464","MEAN_MOTION":13.21824832,"ECCENTRICITY":0.00016055,"INCLINATION":87.9165,"RA_OF_ASC_NODE":262.3134,"ARG_OF_PERICENTER":90.5934,"MEAN_ANOMALY":269.5384,"EPHEMERIS_TYPE":0,"CLASSIFICATION_TYPE":"U","NORAD_CAT_ID":54657,"ELEMENT_SET_NO":999,"REV_AT_EPOCH":15941,"BSTAR":1.7583292e-5,"MEAN_MOTION_DOT":2.0e-7,"MEAN_MOTION_DDOT":0},{"OBJECT_NAME":"ONEWEB-0592","OBJECT_ID":"2022-166S","EPOCH":"2026-03-17T06:22:12.691488","MEAN_MOTION":13.21825231,"ECCENTRICITY":0.00016387,"INCLINATION":87.9173,"RA_OF_ASC_NODE":262.2837,"ARG_OF_PERICENTER":91.707,"MEAN_ANOMALY":268.4251,"EPHEMERIS_TYPE":0,"CLASSIFICATION_TYPE":"U","NORAD_CAT_ID":54658,"ELEMENT_SET_NO":999,"REV_AT_EPOCH":15929,"BSTAR":-8.8617865e-5,"MEAN_MOTION_DOT":-2.4e-7,"MEAN_MOTION_DDOT":0},{"OBJECT_NAME":"ONEWEB-0593","OBJECT_ID":"2022-166T","EPOCH":"2026-03-17T05:06:22.048416","MEAN_MOTION":13.21828002,"ECCENTRICITY":0.000159,"INCLINATION":87.9163,"RA_OF_ASC_NODE":262.313,"ARG_OF_PERICENTER":98.4552,"MEAN_ANOMALY":261.6762,"EPHEMERIS_TYPE":0,"CLASSIFICATION_TYPE":"U","NORAD_CAT_ID":54659,"ELEMENT_SET_NO":999,"REV_AT_EPOCH":15939,"BSTAR":0.0001755297,"MEAN_MOTION_DOT":8.6e-7,"MEAN_MOTION_DDOT":0},{"OBJECT_NAME":"ONEWEB-0594","OBJECT_ID":"2022-166U","EPOCH":"2026-03-17T05:34:48.608256","MEAN_MOTION":13.2182456,"ECCENTRICITY":0.00017805,"INCLINATION":87.9163,"RA_OF_ASC_NODE":262.3267,"ARG_OF_PERICENTER":94.1259,"MEAN_ANOMALY":266.0078,"EPHEMERIS_TYPE":0,"CLASSIFICATION_TYPE":"U","NORAD_CAT_ID":54660,"ELEMENT_SET_NO":999,"REV_AT_EPOCH":15941,"BSTAR":0.00033798049,"MEAN_MOTION_DOT":1.53e-6,"MEAN_MOTION_DDOT":0},{"OBJECT_NAME":"ONEWEB-0595","OBJECT_ID":"2022-166V","EPOCH":"2026-03-17T05:01:38.404128","MEAN_MOTION":13.21824988,"ECCENTRICITY":0.00018472,"INCLINATION":87.917,"RA_OF_ASC_NODE":262.3047,"ARG_OF_PERICENTER":89.8162,"MEAN_ANOMALY":270.3184,"EPHEMERIS_TYPE":0,"CLASSIFICATION_TYPE":"U","NORAD_CAT_ID":54661,"ELEMENT_SET_NO":999,"REV_AT_EPOCH":15938,"BSTAR":1.6746385e-5,"MEAN_MOTION_DOT":2.0e-7,"MEAN_MOTION_DDOT":0},{"OBJECT_NAME":"ONEWEB-0596","OBJECT_ID":"2022-166W","EPOCH":"2026-03-17T06:12:43.826976","MEAN_MOTION":13.21825335,"ECCENTRICITY":0.0001719,"INCLINATION":87.9164,"RA_OF_ASC_NODE":262.3118,"ARG_OF_PERICENTER":90.7505,"MEAN_ANOMALY":269.3826,"EPHEMERIS_TYPE":0,"CLASSIFICATION_TYPE":"U","NORAD_CAT_ID":54662,"ELEMENT_SET_NO":999,"REV_AT_EPOCH":15939,"BSTAR":5.2522651e-5,"MEAN_MOTION_DOT":3.5e-7,"MEAN_MOTION_DDOT":0},{"OBJECT_NAME":"ONEWEB-0597","OBJECT_ID":"2022-166X","EPOCH":"2026-03-17T05:46:39.559296","MEAN_MOTION":13.21827265,"ECCENTRICITY":0.00015479,"INCLINATION":87.9162,"RA_OF_ASC_NODE":262.3202,"ARG_OF_PERICENTER":94.0663,"MEAN_ANOMALY":266.0648,"EPHEMERIS_TYPE":0,"CLASSIFICATION_TYPE":"U","NORAD_CAT_ID":54663,"ELEMENT_SET_NO":999,"REV_AT_EPOCH":15939,"BSTAR":1.1560681e-5,"MEAN_MOTION_DOT":1.8e-7,"MEAN_MOTION_DDOT":0},{"OBJECT_NAME":"ONEWEB-0600","OBJECT_ID":"2022-166Y","EPOCH":"2026-03-17T05:20:36.140064","MEAN_MOTION":13.21825145,"ECCENTRICITY":0.00016611,"INCLINATION":87.9162,"RA_OF_ASC_NODE":262.3149,"ARG_OF_PERICENTER":102.265,"MEAN_ANOMALY":257.867,"EPHEMERIS_TYPE":0,"CLASSIFICATION_TYPE":"U","NORAD_CAT_ID":54664,"ELEMENT_SET_NO":999,"REV_AT_EPOCH":15936,"BSTAR":0.00027122258,"MEAN_MOTION_DOT":1.25e-6,"MEAN_MOTION_DDOT":0},{"OBJECT_NAME":"ONEWEB-0601","OBJECT_ID":"2022-166Z","EPOCH":"2026-03-17T05:08:44.966976","MEAN_MOTION":13.21827296,"ECCENTRICITY":0.00013549,"INCLINATION":87.916,"RA_OF_ASC_NODE":262.3339,"ARG_OF_PERICENTER":95.2175,"MEAN_ANOMALY":264.9114,"EPHEMERIS_TYPE":0,"CLASSIFICATION_TYPE":"U","NORAD_CAT_ID":54665,"ELEMENT_SET_NO":999,"REV_AT_EPOCH":15955,"BSTAR":3.4049965e-5,"MEAN_MOTION_DOT":2.7e-7,"MEAN_MOTION_DDOT":0}]
